[Satellite]
VERSION=1.1
NAME=CZ-2D R/B
NICKNAME=CZ-2D R/B
TLE1=1 53945U 22120C   22297.25037971  .00021886  00000+0  83386-3 0  9994
TLE2=2 53945  34.9975  10.8100 0007503 147.6165 265.9937 15.25796317  4203
STATUS=0
